{
    "links": {
        "self": "http://www.neowsapp.com/rest/v1/neo/54051383?api_key=iIulBulltgU6a56xZRHN4H3l9WmuAYTsLGpBGhQ2"
    },
    "id": "54051383",
    "neo_reference_id": "54051383",
    "name": "(2020 QJ5)",
    "designation": "2020 QJ5",
    "nasa_jpl_url": "http://ssd.jpl.nasa.gov/sbdb.cgi?sstr=54051383",
    "absolute_magnitude_h": 26.809,
    "estimated_diameter": {
        "kilometers": {
            "estimated_diameter_min": 0.0115546016,
            "estimated_diameter_max": 0.0258368747
        },
        "meters": {
            "estimated_diameter_min": 11.5546016241,
            "estimated_diameter_max": 25.8368746845
        },
        "miles": {
            "estimated_diameter_min": 0.0071796944,
            "estimated_diameter_max": 0.0160542847
        },
        "feet": {
            "estimated_diameter_min": 37.9087991925,
            "estimated_diameter_max": 84.7666519399
        }
    },
    "is_potentially_hazardous_asteroid": false,
    "close_approach_data": [
        {
            "close_approach_date": "2020-08-12",
            "close_approach_date_full": "2020-Aug-12 14:59",
            "epoch_date_close_approach": 1597244340000,
            "relative_velocity": {
                "kilometers_per_second": "9.8570929807",
                "kilometers_per_hour": "35485.5347306876",
                "miles_per_hour": "22049.331288632"
            },
            "miss_distance": {
                "astronomical": "0.0019742807",
                "lunar": "0.7679951923",
                "kilometers": "295348.187502109",
                "miles": "183520.8537387442"
            },
            "orbiting_body": "Earth"
        },
        {
            "close_approach_date": "2020-08-12",
            "close_approach_date_full": "2020-Aug-12 21:11",
            "epoch_date_close_approach": 1597266660000,
            "relative_velocity": {
                "kilometers_per_second": "10.6779237841",
                "kilometers_per_hour": "38440.5256225843",
                "miles_per_hour": "23885.4477125441"
            },
            "miss_distance": {
                "astronomical": "0.0020775042",
                "lunar": "0.8081491338",
                "kilometers": "310790.203236054",
                "miles": "193116.0773793852"
            },
            "orbiting_body": "Moon"
        }
    ],
    "orbital_data": {
        "orbit_id": "1",
        "orbit_determination_date": "2020-08-24 18:42:08",
        "first_observation_date": "2020-08-22",
        "last_observation_date": "2020-08-24",
        "data_arc_in_days": 2,
        "observations_used": 11,
        "orbit_uncertainty": "8",
        "minimum_orbit_intersection": ".00163773",
        "jupiter_tisserand_invariant": "3.294",
        "epoch_osculation": "2459084.5",
        "eccentricity": ".5875626705707849",
        "semi_major_axis": "2.360369771159193",
        "inclination": "1.230260133687372",
        "ascending_node_longitude": "144.7325631234868",
        "orbital_period": "1324.550414762506",
        "perihelion_distance": ".9735046048823451",
        "perihelion_argument": "148.9684606934694",
        "aphelion_distance": "3.747234937436041",
        "perihelion_time": "2459053.144071930890",
        "mean_anomaly": "8.522238171586377",
        "mean_motion": ".2717903342807442",
        "equinox": "J2000",
        "orbit_class": {
            "orbit_class_type": "APO",
            "orbit_class_description": "Near-Earth asteroid orbits which cross the Earth’s orbit similar to that of 1862 Apollo",
            "orbit_class_range": "a (semi-major axis) > 1.0 AU; q (perihelion) < 1.017 AU"
        }
    },
    "is_sentry_object": false
}